[{"OBJECT_NAME":"STARLINK-5418","OBJECT_ID":"2022-177AJ","EPOCH":"2026-03-09T22:00:01.999584","MEAN_MOTION":15.12454162,"ECCENTRICITY":0.00010527,"INCLINATION":43.0003,"RA_OF_ASC_NODE":119.0381,"ARG_OF_PERICENTER":226.9765,"MEAN_ANOMALY":357.8621,"EPHEMERIS_TYPE":0,"CLASSIFICATION_TYPE":"U","NORAD_CAT_ID":54852,"ELEMENT_SET_NO":999,"REV_AT_EPOCH":573,"BSTAR":0.0027707485,"MEAN_MOTION_DOT":0.00049145,"MEAN_MOTION_DDOT":0},{"OBJECT_NAME":"LEGION 6","OBJECT_ID":"2025-025B","EPOCH":"2026-03-09T22:31:51.248640","MEAN_MOTION":15.16188393,"ECCENTRICITY":0.00128841,"INCLINATION":45.002,"RA_OF_ASC_NODE":22.5436,"ARG_OF_PERICENTER":290.9928,"MEAN_ANOMALY":68.9572,"EPHEMERIS_TYPE":0,"CLASSIFICATION_TYPE":"U","NORAD_CAT_ID":62901,"ELEMENT_SET_NO":999,"REV_AT_EPOCH":6057,"BSTAR":0.00036964993,"MEAN_MOTION_DOT":7.014e-5,"MEAN_MOTION_DDOT":0}]
